COSMOS 1626             
1 15494U 85009A   17345.82001655  .00001045  00000-0  43239-4 0  9997
2 15494  82.4811  71.9230 0003484 129.1118 231.0429 15.22853439795513
